ONEWEB-0158             
1 48054U 21025N   26201.34174808 -.00000292  00000+0 -83568-3 0  9994
2 48054  87.8988 313.6224 0001886 109.6192 250.5141 13.13471896257985
ONEWEB-0157             
1 48055U 21025P   26201.59566362  .00000150  00000+0  37614-3 0  9994
2 48055  87.8985 313.5768 0002268  94.5486 265.5902 13.13472198257952
ONEWEB-0162             
1 48056U 21025Q   26201.34330831 -.00000271  00000+0 -77663-3 0  9992
2 48056  87.8984 313.6269 0001852  95.7475 264.3866 13.13469737257892
ONEWEB-0155             
1 48057U 21025R   26201.35019511 -.00001451  00000+0 -40089-2 0  9995
2 48057  87.8989 313.6225 0002091  96.2336 263.9031 13.13477690258031
ONEWEB-0149             
1 48058U 21025S   26201.60075688  .00000313  00000+0  82192-3 0  9997
2 48058  87.8985 313.5768 0001842  94.7957 265.3382 13.13470682257874
ONEWEB-0148             
1 48059U 21025T   26201.33497506 -.00000185  00000+0 -54135-3 0  9990
2 48059  87.8983 313.6344 0001842  82.8662 277.2676 13.13469749257965
ONEWEB-0160             
1 48060U 21025U   26201.58043110 -.00000184  00000+0 -53763-3 0  9992
2 48060  87.8980 313.5817 0001584 120.9713 239.1572 13.13470890257941
ONEWEB-0163             
1 48061U 21025V   26201.56520095 -.00000221  00000+0 -64062-3 0  9999
2 48061  87.8991 313.5815 0002218  96.0489 264.0893 13.13470065258061
ONEWEB-0159             
1 48062U 21025W   26201.32820299 -.00000091  00000+0 -28356-3 0  9994
2 48062  87.8991 313.6225 0002183  96.9003 263.2375 13.13469677257950
ONEWEB-0164             
1 48063U 21025X   26201.38576290  .00000273  00000+0  71129-3 0  9996
2 48063  87.8991 313.6176 0001912 102.3178 257.8165 13.13469610257942
ONEWEB-0167             
1 48064U 21025Y   26201.33751992 -.00000318  00000+0 -90601-3 0  9994
2 48064  87.8980 313.6334 0002583 104.5288 255.6128 13.13469963257922
ONEWEB-0166             
1 48065U 21025Z   26201.58890332  .00000062  00000+0  13508-3 0  9999
2 48065  87.8989 313.5587 0001939  97.5807 262.5542 13.13470621258036
ONEWEB-0151             
1 48066U 21025AA  26201.59058764  .00000116  00000+0  28320-3 0  9994
2 48066  87.8986 313.5732 0002073 102.4182 257.7180 13.13470812257976
ONEWEB-0170             
1 48067U 21025AB  26201.37052324  .00000328  00000+0  86422-3 0  9999
2 48067  87.8987 313.6188 0001988 116.1149 244.0185 13.13470055257909
ONEWEB-0168             
1 48068U 21025AC  26201.35528811 -.00000018  00000+0 -83011-4 0  9997
2 48068  87.8988 313.6233 0002028 100.4098 259.7260 13.13470144257914
ONEWEB-0173             
1 48069U 21025AD  26201.34682338 -.00000157  00000+0 -46388-3 0  9991
2 48069  87.8983 313.6247 0002329  98.1287 262.0106 13.13470237258158
ONEWEB-0171             
1 48070U 21025AE  26201.61260264  .00000308  00000+0  80800-3 0  9996
2 48070  87.8982 313.5788 0001987 101.8732 258.2620 13.13469558258000
ONEWEB-0172             
1 48071U 21025AF  26201.36374581  .00000094  00000+0  22235-3 0  9997
2 48071  87.8991 313.6212 0002125 100.6888 259.4480 13.13471385258860
ONEWEB-0174             
1 48072U 21025AG  26201.34513429 -.00000286  00000+0 -81736-3 0  9998
2 48072  87.8990 313.6234 0001935  95.4674 264.6676 13.13470150258185
ONEWEB-0175             
1 48073U 21025AH  26201.37560627  .00000221  00000+0  56919-3 0  9996
2 48073  87.8990 313.6030 0002125 108.1505 251.9855 13.13469843257844
ONEWEB-0177             
1 48074U 21025AJ  26201.53980950  .00000272  00000+0  70862-3 0  9999
2 48074  87.8988 313.5877 0002059  94.7513 265.3851 13.13469883258058
ONEWEB-0178             
1 48075U 21025AK  26201.33003134 -.00000195  00000+0 -56921-3 0  9994
2 48075  87.8978 313.6384 0002194 102.5719 257.5655 13.13470385258074
ONEWEB-0108             
1 48076U 21025AL  26201.36544861  .00000122  00000+0  29906-3 0  9996
2 48076  87.8989 313.6149 0001706  98.3367 261.7956 13.13470264258005
ONEWEB-0169             
1 48077U 21025AM  26201.32143459 -.00000005  00000+0 -49785-4 0  9991
2 48077  87.8989 313.6292 0001918  96.1954 263.9394 13.13469273256655
ONEWEB-0176             
1 48210U 21031A   26201.51858502  .00000239  00000+0  61076-3 0  9993
2 48210  87.8962 283.0586 0002118 100.0890 260.0479 13.14502834252692
ONEWEB-0184             
1 48211U 21031B   26201.26327177 -.00000198  00000+0 -56740-3 0  9993
2 48211  87.8969 283.1122 0002728 110.6997 249.4425 13.14502787252632
ONEWEB-0179             
1 48212U 21031C   26201.29713995  .00001593  00000+0  51260-3 0  9994
2 48212  87.8987 279.0049 0222358 148.9123 212.5452 14.25565780253764
ONEWEB-0180             
1 48213U 21031D   26201.26644383 -.00000120  00000+0 -35774-3 0  9995
2 48213  87.8974 283.1085 0002446  96.0049 264.1359 13.14503197252568
ONEWEB-0218             
1 48214U 21031E   26201.28863930  .00000188  00000+0  47294-3 0  9991
2 48214  87.8975 283.1033 0002883 105.5480 254.5968 13.14504127252724
ONEWEB-0209             
1 48215U 21031F   26201.27754533  .00000069  00000+0  15131-3 0  9992
2 48215  87.8963 283.1195 0002193  94.2018 265.9362 13.14503838252728
