OBJECT_NAME,OBJECT_ID,EPOCH,MEAN_MOTION,ECCENTRICITY,INCLINATION,RA_OF_ASC_NODE,ARG_OF_PERICENTER,MEAN_ANOMALY,EPHEMERIS_TYPE,CLASSIFICATION_TYPE,NORAD_CAT_ID,ELEMENT_SET_NO,REV_AT_EPOCH,BSTAR,MEAN_MOTION_DOT,MEAN_MOTION_DDOT
ONEWEB-0158,2021-025N,2026-07-20T08:12:07.034112,13.13471896,.00018861,87.8988,313.6224,109.6192,250.5141,0,U,48054,999,25798,-.83568312E-3,-.292E-5,0
ONEWEB-0157,2021-025P,2026-07-20T14:17:45.336768,13.13472198,.00022687,87.8985,313.5768,94.5486,265.5902,0,U,48055,999,25795,.37614136E-3,.15E-5,0
ONEWEB-0162,2021-025Q,2026-07-20T08:14:21.837984,13.13469737,.00018526,87.8984,313.6269,95.7475,264.3866,0,U,48056,999,25789,-.77662899E-3,-.271E-5,0
ONEWEB-0155,2021-025R,2026-07-20T08:24:16.857504,13.13477690,.00020916,87.8989,313.6225,96.2336,263.9031,0,U,48057,999,25803,-.40089082E-2,-.1451E-4,0
ONEWEB-0149,2021-025S,2026-07-20T14:25:05.394432,13.13470682,.00018426,87.8985,313.5768,94.7957,265.3382,0,U,48058,999,25787,.82191919E-3,.313E-5,0
ONEWEB-0148,2021-025T,2026-07-20T08:02:21.845184,13.13469749,.00018426,87.8983,313.6344,82.8662,277.2676,0,U,48059,999,25796,-.54135197E-3,-.185E-5,0
ONEWEB-0160,2021-025U,2026-07-20T13:55:49.247040,13.13470890,.00015844,87.8980,313.5817,120.9713,239.1572,0,U,48060,999,25794,-.53762671E-3,-.184E-5,0
ONEWEB-0163,2021-025V,2026-07-20T13:33:53.362080,13.13470065,.00022187,87.8991,313.5815,96.0489,264.0893,0,U,48061,999,25806,-.64061643E-3,-.221E-5,0
ONEWEB-0159,2021-025W,2026-07-20T07:52:36.738336,13.13469677,.00021831,87.8991,313.6225,96.9003,263.2375,0,U,48062,999,25795,-.28356428E-3,-.91E-6,0
ONEWEB-0164,2021-025X,2026-07-20T09:15:29.914560,13.13469610,.0001912,87.8991,313.6176,102.3178,257.8165,0,U,48063,999,25794,.71128886E-3,.273E-5,0
ONEWEB-0167,2021-025Y,2026-07-20T08:06:01.721088,13.13469963,.00025834,87.8980,313.6334,104.5288,255.6128,0,U,48064,999,25792,-.90600575E-3,-.318E-5,0
ONEWEB-0166,2021-025Z,2026-07-20T14:08:01.246848,13.13470621,.00019399,87.8989,313.5587,97.5807,262.5542,0,U,48065,999,25803,.13507862E-3,.62E-6,0
ONEWEB-0151,2021-025AA,2026-07-20T14:10:26.772096,13.13470812,.0002073,87.8986,313.5732,102.4182,257.7180,0,U,48066,999,25797,.28320381E-3,.116E-5,0
ONEWEB-0170,2021-025AB,2026-07-20T08:53:33.207936,13.13470055,.00019884,87.8987,313.6188,116.1149,244.0185,0,U,48067,999,25790,.86421846E-3,.328E-5,0
ONEWEB-0168,2021-025AC,2026-07-20T08:31:36.892704,13.13470144,.00020287,87.8988,313.6233,100.4098,259.7260,0,U,48068,999,25791,-.83011127E-4,-.18E-6,0
ONEWEB-0173,2021-025AD,2026-07-20T08:19:25.540032,13.13470237,.00023291,87.8983,313.6247,98.1287,262.0106,0,U,48069,999,25815,-.46387731E-3,-.157E-5,0
ONEWEB-0171,2021-025AE,2026-07-20T14:42:08.868096,13.13469558,.00019871,87.8982,313.5788,101.8732,258.2620,0,U,48070,999,25800,.80800045E-3,.308E-5,0
ONEWEB-0172,2021-025AF,2026-07-20T08:43:47.637984,13.13471385,.00021258,87.8991,313.6212,100.6888,259.4480,0,U,48071,999,25886,.22234668E-3,.94E-6,0
ONEWEB-0174,2021-025AG,2026-07-20T08:16:59.602656,13.13470150,.00019353,87.8990,313.6234,95.4674,264.6676,0,U,48072,999,25818,-.81735658E-3,-.286E-5,0
ONEWEB-0175,2021-025AH,2026-07-20T09:00:52.381728,13.13469843,.00021258,87.8990,313.6030,108.1505,251.9855,0,U,48073,999,25784,.56919178E-3,.221E-5,0
ONEWEB-0177,2021-025AJ,2026-07-20T12:57:19.540800,13.13469883,.00020595,87.8988,313.5877,94.7513,265.3851,0,U,48074,999,25805,.70861795E-3,.272E-5,0
ONEWEB-0178,2021-025AK,2026-07-20T07:55:14.707776,13.13470385,.00021943,87.8978,313.6384,102.5719,257.5655,0,U,48075,999,25807,-.5692061E-3,-.195E-5,0
ONEWEB-0108,2021-025AL,2026-07-20T08:46:14.759904,13.13470264,.00017063,87.8989,313.6149,98.3367,261.7956,0,U,48076,999,25800,.29905506E-3,.122E-5,0
ONEWEB-0169,2021-025AM,2026-07-20T07:42:51.948576,13.13469273,.00019187,87.8989,313.6292,96.1954,263.9394,0,U,48077,999,25665,-.49784931E-4,-.5E-7,0
ONEWEB-0176,2021-031A,2026-07-20T12:26:45.745728,13.14502834,.00021182,87.8962,283.0586,100.0890,260.0479,0,U,48210,999,25269,.61075953E-3,.239E-5,0
ONEWEB-0184,2021-031B,2026-07-20T06:19:06.680928,13.14502787,.00027282,87.8969,283.1122,110.6997,249.4425,0,U,48211,999,25263,-.56740255E-3,-.198E-5,0
ONEWEB-0179,2021-031C,2026-07-20T07:07:52.891680,14.25565780,.02223584,87.8987,279.0049,148.9123,212.5452,0,U,48212,999,25376,.51259712E-3,.1593E-4,0
ONEWEB-0180,2021-031D,2026-07-20T06:23:40.746912,13.14503197,.00024468,87.8974,283.1085,96.0049,264.1359,0,U,48213,999,25256,-.35774436E-3,-.12E-5,0
ONEWEB-0218,2021-031E,2026-07-20T06:55:38.435520,13.14504127,.00028831,87.8975,283.1033,105.5480,254.5968,0,U,48214,999,25272,.47294273E-3,.188E-5,0
ONEWEB-0209,2021-031F,2026-07-20T06:39:39.916512,13.14503838,.00021936,87.8963,283.1195,94.2018,265.9362,0,U,48215,999,25272,.1513125E-3,.69E-6,0
